start=new Date('2021-10-02T00:00:00.000Z').valueOf();
sats=[{"OBJECT_NAME":"STARLINK-1459","ELEMENT_SET_NO":"999","EPOCH":"2021-10-01T19:33:18.184320","APOAPSIS":"548.008","EPHEMERIS_TYPE":"0","INCLINATION":"53.0551","TLE_LINE1":"1 45769U 20038AR  21274.81479380  .00001616  00000-0  12740-3 0  9991","BSTAR":"0.00012740000000","DECAY_DATE":null,"TIME_SYSTEM":"UTC","RCS_SIZE":"LARGE","CLASSIFICATION_TYPE":"U","NORAD_CAT_ID":"45769","GP_ID":"185959831","REF_FRAME":"TEME","MEAN_MOTION":"15.06394619","TLE_LINE2":"2 45769  53.0551 308.5271 0001123  73.6140 286.4972 15.06394619 72041","ECCENTRICITY":"0.00011230","SITE":"AFETR","LAUNCH_DATE":"2020-06-13","MEAN_MOTION_DOT":"0.00001616","CENTER_NAME":"EARTH","FILE":"3139397","MEAN_ELEMENT_THEORY":"SGP4","MEAN_ANOMALY":"286.4972","OBJECT_TYPE":"PAYLOAD","COUNTRY_CODE":"US","MEAN_MOTION_DDOT":"0.0000000000000","PERIOD":"95.592","REV_AT_EPOCH":"7204","OBJECT_ID":"2020-038AR","SEMIMAJOR_AXIS":"6925.365","ARG_OF_PERICENTER":"73.6140","RA_OF_ASC_NODE":"308.5271","PERIAPSIS":"546.452"},{"SITE":"AFETR","MEAN_MOTION_DOT":"-0.00000485","CENTER_NAME":"EARTH","LAUNCH_DATE":"2020-06-13","TLE_LINE2":"2 45770  53.0545 269.1125 0000896  63.8393 296.2688 15.06397693 72579","ECCENTRICITY":"0.00008960","MEAN_MOTION":"15.06397693","REF_FRAME":"TEME","RCS_SIZE":"LARGE","NORAD_CAT_ID":"45770","GP_ID":"185960585","CLASSIFICATION_TYPE":"U","BSTAR":"-0.00001370700000","TIME_SYSTEM":"UTC","DECAY_DATE":null,"EPHEMERIS_TYPE":"0","TLE_LINE1":"1 45770U 20038AS  21274.68484960 -.00000485  00000-0 -13707-4 0  9998","INCLINATION":"53.0545","APOAPSIS":"547.841","OBJECT_NAME":"STARLINK-1462","EPOCH":"2021-10-01T16:26:11.005440","ELEMENT_SET_NO":"999","PERIAPSIS":"546.600","RA_OF_ASC_NODE":"269.1125","REV_AT_EPOCH":"7257","ARG_OF_PERICENTER":"63.8393","OBJECT_ID":"2020-038AS","SEMIMAJOR_AXIS":"6925.356","PERIOD":"95.592","MEAN_MOTION_DDOT":"0.0000000000000","COUNTRY_CODE":"US","MEAN_ANOMALY":"296.2688","OBJECT_TYPE":"PAYLOAD","FILE":"3139397","MEAN_ELEMENT_THEORY":"SGP4"},{"MEAN_ANOMALY":"290.4460","OBJECT_TYPE":"PAYLOAD","MEAN_ELEMENT_THEORY":"SGP4","FILE":"3139397","PERIAPSIS":"546.314","RA_OF_ASC_NODE":"269.1387","SEMIMAJOR_AXIS":"6925.357","OBJECT_ID":"2020-038AT","ARG_OF_PERICENTER":"69.6670","REV_AT_EPOCH":"7257","COUNTRY_CODE":"US","MEAN_MOTION_DDOT":"0.0000000000000","PERIOD":"95.592","DECAY_DATE":null,"TIME_SYSTEM":"UTC","BSTAR":"0.00014748000000","TLE_LINE1":"1 45771U 20038AT  21274.67841477  .00001916  00000-0  14748-3 0  9991","INCLINATION":"53.0543","EPHEMERIS_TYPE":"0","APOAPSIS":"548.131","EPOCH":"2021-10-01T16:16:55.036128","ELEMENT_SET_NO":"999","OBJECT_NAME":"STARLINK-1463","LAUNCH_DATE":"2020-06-13","CENTER_NAME":"EARTH","MEAN_MOTION_DOT":"0.00001916","SITE":"AFETR","TLE_LINE2":"2 45771  53.0543 269.1387 0001312  69.6670 290.4460 15.06397188 72577","ECCENTRICITY":"0.00013120","REF_FRAME":"TEME","MEAN_MOTION":"15.06397188","CLASSIFICATION_TYPE":"U","GP_ID":"185958838","NORAD_CAT_ID":"45771","RCS_SIZE":"LARGE"},{"ECCENTRICITY":"0.00010380","TLE_LINE2":"2 45772  53.0540 269.4891 0001038  67.9561 292.1539 15.06409866 72576","SITE":"AFETR","LAUNCH_DATE":"2020-06-13","MEAN_MOTION_DOT":"0.00003717","CENTER_NAME":"EARTH","RCS_SIZE":"LARGE","CLASSIFICATION_TYPE":"U","NORAD_CAT_ID":"45772","GP_ID":"185959088","REF_FRAME":"TEME","MEAN_MOTION":"15.06409866","EPHEMERIS_TYPE":"0","INCLINATION":"53.0540","TLE_LINE1":"1 45772U 20038AU  21274.60101411  .00003717  00000-0  26825-3 0  9992","BSTAR":"0.00026825000000","DECAY_DATE":null,"TIME_SYSTEM":"UTC","OBJECT_NAME":"STARLINK-1470","EPOCH":"2021-10-01T14:25:27.619104","ELEMENT_SET_NO":"999","APOAPSIS":"547.902","RA_OF_ASC_NODE":"269.4891","PERIAPSIS":"546.464","MEAN_MOTION_DDOT":"0.0000000000000","COUNTRY_CODE":"US","PERIOD":"95.592","REV_AT_EPOCH":"7257","SEMIMAJOR_AXIS":"6925.318","OBJECT_ID":"2020-038AU","ARG_OF_PERICENTER":"67.9561","FILE":"3139397","MEAN_ELEMENT_THEORY":"SGP4","OBJECT_TYPE":"PAYLOAD","MEAN_ANOMALY":"292.1539"},{"FILE":"3139397","MEAN_ELEMENT_THEORY":"SGP4","MEAN_ANOMALY":"291.1463","OBJECT_TYPE":"PAYLOAD","RA_OF_ASC_NODE":"268.9185","PERIAPSIS":"546.307","MEAN_MOTION_DDOT":"0.0000000000000","COUNTRY_CODE":"US","PERIOD":"95.592","REV_AT_EPOCH":"7259","SEMIMAJOR_AXIS":"6925.345","OBJECT_ID":"2020-038AV","ARG_OF_PERICENTER":"68.9665","EPHEMERIS_TYPE":"0","TLE_LINE1":"1 45773U 20038AV  21274.72632825  .00000241  00000-0  35037-4 0  9999","INCLINATION":"53.0545","BSTAR":"0.00003503700000","DECAY_DATE":null,"TIME_SYSTEM":"UTC","OBJECT_NAME":"STARLINK-1482","ELEMENT_SET_NO":"999","EPOCH":"2021-10-01T17:25:54.760800","APOAPSIS":"548.113","ECCENTRICITY":"0.00013040","TLE_LINE2":"2 45773  53.0545 268.9185 0001304  68.9665 291.1463 15.06401036 72592","SITE":"AFETR","LAUNCH_DATE":"2020-06-13","CENTER_NAME":"EARTH","MEAN_MOTION_DOT":"0.00000241","RCS_SIZE":"LARGE","CLASSIFICATION_TYPE":"U","GP_ID":"185960332","NORAD_CAT_ID":"45773","MEAN_MOTION":"15.06401036","REF_FRAME":"TEME"},{"FILE":"3139397","MEAN_ELEMENT_THEORY":"SGP4","MEAN_ANOMALY":"280.9859","OBJECT_TYPE":"PAYLOAD","RA_OF_ASC_NODE":"269.0571","PERIAPSIS":"546.340","COUNTRY_CODE":"US","MEAN_MOTION_DDOT":"0.0000000000000","PERIOD":"95.592","REV_AT_EPOCH":"7258","SEMIMAJOR_AXIS":"6925.349","OBJECT_ID":"2020-038AW","ARG_OF_PERICENTER":"79.1272","EPHEMERIS_TYPE":"0","TLE_LINE1":"1 45774U 20038AW  21274.69685238 -.00000308  00000-0 -17795-5 0  9990","INCLINATION":"53.0507","BSTAR":"-0.00000177950000","DECAY_DATE":null,"TIME_SYSTEM":"UTC","OBJECT_NAME":"STARLINK-1485","ELEMENT_SET_NO":"999","EPOCH":"2021-10-01T16:43:28.045632","APOAPSIS":"548.088","TLE_LINE2":"2 45774  53.0507 269.0571 0001262  79.1272 280.9859 15.06399812 72585","ECCENTRICITY":"0.00012620","SITE":"AFETR","LAUNCH_DATE":"2020-06-13","MEAN_MOTION_DOT":"-0.00000308","CENTER_NAME":"EARTH","RCS_SIZE":"MEDIUM","CLASSIFICATION_TYPE":"U","GP_ID":"185960085","NORAD_CAT_ID":"45774","MEAN_MOTION":"15.06399812","REF_FRAME":"TEME"},{"PERIOD":"95.592","COUNTRY_CODE":"US","MEAN_MOTION_DDOT":"0.0000000000000","ARG_OF_PERICENTER":"67.9151","SEMIMAJOR_AXIS":"6925.329","OBJECT_ID":"2020-038AX","REV_AT_EPOCH":"7259","RA_OF_ASC_NODE":"269.0373","PERIAPSIS":"546.334","MEAN_ELEMENT_THEORY":"SGP4","FILE":"3139397","OBJECT_TYPE":"PAYLOAD","MEAN_ANOMALY":"292.1970","GP_ID":"185959339","NORAD_CAT_ID":"45775","CLASSIFICATION_TYPE":"U","RCS_SIZE":"LARGE","MEAN_MOTION":"15.06406424","REF_FRAME":"TEME","ECCENTRICITY":"0.00012410","TLE_LINE2":"2 45775  53.0539 269.0373 0001241  67.9151 292.1970 15.06406424 72597","CENTER_NAME":"EARTH","MEAN_MOTION_DOT":"0.00000151","LAUNCH_DATE":"2020-06-13","SITE":"AFETR","ELEMENT_SET_NO":"999","EPOCH":"2021-10-01T16:48:45.514656","OBJECT_NAME":"STARLINK-1488","APOAPSIS":"548.053","TLE_LINE1":"1 45775U 20038AX  21274.70052679  .00000151  00000-0  29007-4 0  9992","INCLINATION":"53.0539","EPHEMERIS_TYPE":"0","TIME_SYSTEM":"UTC","DECAY_DATE":null,"BSTAR":"0.00002900700000"},{"LAUNCH_DATE":"2020-06-13","MEAN_MOTION_DOT":"0.00000125","CENTER_NAME":"EARTH","SITE":"AFETR","TLE_LINE2":"2 45776  53.0532 269.0101 0001156  69.4602 290.6511 15.06396614 72596","ECCENTRICITY":"0.00011560","MEAN_MOTION":"15.06396614","REF_FRAME":"TEME","CLASSIFICATION_TYPE":"U","GP_ID":"185959588","NORAD_CAT_ID":"45776","RCS_SIZE":"LARGE","DECAY_DATE":null,"TIME_SYSTEM":"UTC","BSTAR":"0.00002726700000","TLE_LINE1":"1 45776U 20038AY  21274.70790612  .00000125  00000-0  27267-4 0  9996","INCLINATION":"53.0532","EPHEMERIS_TYPE":"0","APOAPSIS":"548.025","EPOCH":"2021-10-01T16:59:23.088768","ELEMENT_SET_NO":"999","OBJECT_NAME":"STARLINK-1489","PERIAPSIS":"546.423","RA_OF_ASC_NODE":"269.0101","OBJECT_ID":"2020-038AY","SEMIMAJOR_AXIS":"6925.359","ARG_OF_PERICENTER":"69.4602","REV_AT_EPOCH":"7259","COUNTRY_CODE":"US","MEAN_MOTION_DDOT":"0.0000000000000","PERIOD":"95.592","MEAN_ANOMALY":"290.6511","OBJECT_TYPE":"PAYLOAD","MEAN_ELEMENT_THEORY":"SGP4","FILE":"3139397"},{"REF_FRAME":"TEME","MEAN_MOTION":"15.06405016","NORAD_CAT_ID":"45777","GP_ID":"185959832","CLASSIFICATION_TYPE":"U","RCS_SIZE":"LARGE","MEAN_MOTION_DOT":"0.00004085","CENTER_NAME":"EARTH","LAUNCH_DATE":"2020-06-13","SITE":"AFETR","TLE_LINE2":"2 45777  53.0531 269.0236 0001087  70.6544 289.4563 15.06405016 72597","ECCENTRICITY":"0.00010870","APOAPSIS":"547.951","EPOCH":"2021-10-01T16:54:04.126752","ELEMENT_SET_NO":"999","OBJECT_NAME":"STARLINK-1490","TIME_SYSTEM":"UTC","DECAY_DATE":null,"BSTAR":"0.00029291000000","TLE_LINE1":"1 45777U 20038AZ  21274.70421443  .00004085  00000-0  29291-3 0  9997","INCLINATION":"53.0531","EPHEMERIS_TYPE":"0","ARG_OF_PERICENTER":"70.6544","SEMIMAJOR_AXIS":"6925.333","OBJECT_ID":"2020-038AZ","REV_AT_EPOCH":"7259","PERIOD":"95.592","COUNTRY_CODE":"US","MEAN_MOTION_DDOT":"0.0000000000000","PERIAPSIS":"546.445","RA_OF_ASC_NODE":"269.0236","MEAN_ANOMALY":"289.4563","OBJECT_TYPE":"PAYLOAD","MEAN_ELEMENT_THEORY":"SGP4","FILE":"3139397"},{"TLE_LINE2":"2 45778  53.0536 269.1103 0001249  88.3087 271.8045 15.06391019 72570","ECCENTRICITY":"0.00012490","SITE":"AFETR","MEAN_MOTION_DOT":"-0.00000543","CENTER_NAME":"EARTH","LAUNCH_DATE":"2020-06-13","RCS_SIZE":"LARGE","NORAD_CAT_ID":"45778","GP_ID":"185960586","CLASSIFICATION_TYPE":"U","MEAN_MOTION":"15.06391019","REF_FRAME":"TEME","EPHEMERIS_TYPE":"0","INCLINATION":"53.0536","TLE_LINE1":"1 45778U 20038BA  21274.68579164 -.00000543  00000-0 -17543-4 0  9994","BSTAR":"-0.00001754300000","TIME_SYSTEM":"UTC","DECAY_DATE":null,"OBJECT_NAME":"STARLINK-1491","ELEMENT_SET_NO":"999","EPOCH":"2021-10-01T16:27:32.397696","APOAPSIS":"548.106","RA_OF_ASC_NODE":"269.1103","PERIAPSIS":"546.376","PERIOD":"95.593","COUNTRY_CODE":"US","MEAN_MOTION_DDOT":"0.0000000000000","REV_AT_EPOCH":"7257","ARG_OF_PERICENTER":"88.3087","SEMIMAJOR_AXIS":"6925.376","OBJECT_ID":"2020-038BA","FILE":"3139397","MEAN_ELEMENT_THEORY":"SGP4","OBJECT_TYPE":"PAYLOAD","MEAN_ANOMALY":"271.8045"}];
